NORAD_CAT_ID,OBJECT_NAME,OBJECT_TYPE,EPOCH,MEAN_MOTION,ECCENTRICITY,INCLINATION,RA_OF_ASC_NODE,ARG_OF_PERICENTER,MEAN_ANOMALY,BSTAR,MEAN_MOTION_DOT,MEAN_MOTION_DDOT,TLE_LINE0,TLE_LINE1,TLE_LINE2,SEMIMAJOR_AXIS,PERIOD,APOGEE,PERIGEE,DECAYED
53709.0,STARLINK-4685,PAYLOAD,2023-10-02 17:12:08,15.08837697,0.0002166,53.2155,279.569,61.4678,298.6532,3.1519e-06,-2.38e-06,0.0,0 STARLINK-4685,1 53709U 22107K   23275.71677005 -.00000238  00000-0  31519-5 0  9996,2 53709  53.2155 279.5690 0002166  61.4678 298.6532 15.08837697 59836,6917.887,95.438,541.251,538.254,0.0
53709.0,STARLINK-4685,PAYLOAD,2023-10-03 09:05:59,15.08847133,0.0001521,53.2153,276.5954,91.0245,269.0921,0.00028294,4.219e-05,0.0,0 STARLINK-4685,1 53709U 22107K   23276.37916620  .00004219  00000-0  28294-3 0  9994,2 53709  53.2153 276.5954 0001521  91.0245 269.0921 15.08847133 60378,6917.859,95.437,540.776,538.671,0.0
53709.0,STARLINK-4685,PAYLOAD,2023-10-03 23:24:28,15.08833541,0.0001644,53.2157,273.9197,108.2009,251.9162,-3.163e-05,-7.91e-06,0.0,0 STARLINK-4685,1 53709U 22107K   23276.97533160 -.00000791  00000-0 -31630-4 0  9996,2 53709  53.2157 273.9197 0001644 108.2009 251.9162 15.08833541 60024,6917.9,95.438,540.902,538.628,0.0
53709.0,STARLINK-4685,PAYLOAD,2023-10-04 08:56:47,15.08840245,0.0001503,53.2154,272.1341,88.5027,271.6137,7.5034e-05,9.06e-06,0.0,0 STARLINK-4685,1 53709U 22107K   23277.37277192  .00000906  00000-0  75034-4 0  9993,2 53709  53.2154 272.1341 0001503  88.5027 271.6137 15.08840245 60522,6917.88,95.438,540.784,538.705,0.0
53709.0,STARLINK-4685,PAYLOAD,2023-10-04 16:53:43,15.08840016,0.0001468,53.2156,270.6471,93.4703,266.6457,8.6183e-05,1.084e-05,0.0,0 STARLINK-4685,1 53709U 22107K   23277.70397255  .00001084  00000-0  86183-4 0  9998,2 53709  53.2156 270.6471 0001468  93.4703 266.6457 15.08840016 60577,6917.88,95.438,540.761,538.73,0.0
53709.0,STARLINK-4685,PAYLOAD,2023-10-05 08:47:34,15.08844766,0.0001473,53.2147,267.6741,95.6746,264.4414,0.00022304,3.264e-05,0.0,0 STARLINK-4685,1 53709U 22107K   23278.36637214  .00003264  00000-0  22304-3 0  9999,2 53709  53.2147 267.6741 0001473  95.6746 264.4414 15.08844766 60238,6917.866,95.437,540.75,538.712,0.0
53709.0,STARLINK-4685,PAYLOAD,2023-10-05 16:44:30,15.08842288,0.0001445,53.2147,266.1863,94.9833,265.1324,0.00013688,1.891e-05,0.0,0 STARLINK-4685,1 53709U 22107K   23278.69757317  .00001891  00000-0  13688-3 0  9991,2 53709  53.2147 266.1863 0001445  94.9833 265.1324 15.08842288 60724,6917.873,95.437,540.738,538.739,0.0
53709.0,STARLINK-4685,PAYLOAD,2023-10-06 08:38:21,15.08853645,0.0001518,53.2149,263.2126,95.09,265.0265,0.00037213,5.642e-05,0.0,0 STARLINK-4685,1 53709U 22107K   23279.35996860  .00005642  00000-0  37213-3 0  9991,2 53709  53.2149 263.2126 0001518  95.0900 265.0265 15.08853645 60827,6917.839,95.437,540.754,538.654,0.0
53709.0,STARLINK-4685,PAYLOAD,2023-10-06 16:35:17,15.08835928,0.0002082,53.2146,261.7258,88.8565,271.2665,3.36e-05,2.46e-06,0.0,0 STARLINK-4685,1 53709U 22107K   23279.69117756  .00000246  00000-0  33600-4 0  9999,2 53709  53.2146 261.7258 0002082  88.8565 271.2665 15.08835928 60431,6917.893,95.438,541.198,538.318,0.0
53709.0,STARLINK-4685,PAYLOAD,2023-10-07 08:29:08,15.08840245,0.0001706,53.2153,258.7513,95.5258,264.5929,8.6527e-05,1.089e-05,0.0,0 STARLINK-4685,1 53709U 22107K   23280.35357523  .00001089  00000-0  86527-4 0  9994,2 53709  53.2153 258.7513 0001706  95.5258 264.5929 15.08840245 60970,6917.88,95.438,540.925,538.564,0.0
53709.0,STARLINK-4685,PAYLOAD,2023-10-08 01:58:23,15.0884415,0.0001754,53.2149,255.4803,95.0584,265.0608,0.00017324,2.47e-05,0.0,0 STARLINK-4685,1 53709U 22107K   23281.08221506  .00002470  00000-0  17324-3 0  9999,2 53709  53.2149 255.4803 0001754  95.0584 265.0608 15.08844150 60644,6917.868,95.437,540.946,538.519,0.0
53709.0,STARLINK-4685,PAYLOAD,2023-10-08 08:19:55,15.08851615,0.0001654,53.216,254.2905,96.0007,264.1174,0.00028732,4.289e-05,0.0,0 STARLINK-4685,1 53709U 22107K   23281.34717171  .00004289  00000-0  28732-3 0  9991,2 53709  53.2160 254.2905 0001654  96.0007 264.1174 15.08851615 61123,6917.845,95.437,540.854,538.566,0.0
53709.0,STARLINK-4685,PAYLOAD,2023-10-09 03:24:32,15.08857085,0.0001545,53.2163,250.7224,100.8447,259.2719,0.00037891,5.75e-05,0.0,0 STARLINK-4685,1 53709U 22107K   23282.14204537  .00005750  00000-0  37891-3 0  9997,2 53709  53.2163 250.7224 0001545 100.8447 259.2719 15.08857085 60803,6917.828,95.436,540.762,538.624,0.0
53709.0,STARLINK-4685,PAYLOAD,2023-10-09 06:35:18,15.08876158,0.0001276,53.2155,250.1277,96.4452,263.6686,0.00071525,0.00011125,0.0,0 STARLINK-4685,1 53709U 22107K   23282.27451821  .00011125  00000-0  71525-3 0  9996,2 53709  53.2155 250.1277 0001276  96.4452 263.6686 15.08876158 60829,6917.77,95.435,540.518,538.752,0.0
53709.0,STARLINK-4685,PAYLOAD,2023-10-10 01:39:56,15.08833209,0.0001278,53.2158,246.5596,89.9444,270.1695,-0.00027784,-4.706e-05,0.0,0 STARLINK-4685,1 53709U 22107K   23283.06940934 -.00004706  00000-0 -27784-3 0  9999,2 53709  53.2158 246.5596 0001278  89.9444 270.1695 15.08833209 60941,6917.901,95.438,540.65,538.882,0.0
53709.0,STARLINK-4685,PAYLOAD,2023-10-10 06:26:06,15.08835481,0.0001281,53.2158,245.6669,93.0851,267.0288,-0.00015324,-2.726e-05,0.0,0 STARLINK-4685,1 53709U 22107K   23283.26812938 -.00002726  00000-0 -15324-3 0  9990,2 53709  53.2158 245.6669 0001281  93.0851 267.0288 15.08835481 61414,6917.894,95.438,540.645,538.873,0.0
53709.0,STARLINK-4685,PAYLOAD,2023-10-11 03:06:07,15.08829889,0.0001451,53.2164,241.8045,83.7386,276.3771,-0.00014635,-2.616e-05,0.0,0 STARLINK-4685,1 53709U 22107K   23284.12925735 -.00002616  00000-0 -14635-3 0  9998,2 53709  53.2164 241.8045 0001451  83.7386 276.3771 15.08829889 61106,6917.911,95.438,540.78,538.773,0.0
53709.0,STARLINK-4685,PAYLOAD,2023-10-11 07:52:17,15.08838301,0.0001323,53.2157,240.9066,79.2264,280.8877,9.1908e-05,1.175e-05,0.0,0 STARLINK-4685,1 53709U 22107K   23284.32797679  .00001175  00000-0  91908-4 0  9990,2 53709  53.2157 240.9066 0001323  79.2264 280.8877 15.08838301 61571,6917.886,95.438,540.666,538.835,0.0
53709.0,STARLINK-4685,PAYLOAD,2023-10-12 04:32:18,15.08841542,0.0001525,53.2163,237.0422,91.8411,268.2756,0.00037271,5.649e-05,0.0,0 STARLINK-4685,1 53709U 22107K   23285.18910294  .00005649  00000-0  37271-3 0  9997,2 53709  53.2163 237.0422 0001525  91.8411 268.2756 15.08841542 61262,6917.876,95.437,540.796,538.686,0.0
53709.0,STARLINK-4685,PAYLOAD,2023-10-12 14:04:37,15.08834431,0.0001973,53.2173,235.2607,80.7684,279.3531,0.00015537,2.185e-05,0.0,0 STARLINK-4685,1 53709U 22107K   23285.58654872  .00002185  00000-0  15537-3 0  9991,2 53709  53.2173 235.2607 0001973  80.7684 279.3531 15.08834431 61762,6917.897,95.438,541.127,538.398,0.0
53709.0,STARLINK-4685,PAYLOAD,2023-10-13 04:23:05,15.08848981,0.0001444,53.2169,232.5804,95.8854,264.2303,0.00029668,4.438e-05,0.0,0 STARLINK-4685,1 53709U 22107K   23286.18270142  .00004438  00000-0  29668-3 0  9995,2 53709  53.2169 232.5804 0001444  95.8854 264.2303 15.08848981 61412,6917.853,95.437,540.717,538.719,0.0
53709.0,STARLINK-4685,PAYLOAD,2023-10-13 13:55:24,15.08847265,0.0001477,53.2167,230.801,92.935,267.1811,0.00022651,3.319e-05,0.0,0 STARLINK-4685,1 53709U 22107K   23286.58014261  .00003319  00000-0  22651-3 0  9999,2 53709  53.2167 230.8010 0001477  92.9350 267.1811 15.08847265 61910,6917.858,95.437,540.745,538.701,0.0
53709.0,STARLINK-4685,PAYLOAD,2023-10-14 05:49:14,15.08869375,0.0001513,53.2167,227.8255,98.6324,261.484,0.00052543,8.091e-05,0.0,0 STARLINK-4685,1 53709U 22107K   23287.24253033  .00008091  00000-0  52543-3 0  9990,2 53709  53.2167 227.8255 0001513  98.6324 261.4840 15.08869375 61579,6917.791,95.436,540.702,538.609,0.0
53709.0,STARLINK-4685,PAYLOAD,2023-10-14 13:46:11,15.08833876,0.0002237,53.2174,226.3404,85.0858,275.0389,-0.00014298,-2.563e-05,0.0,0 STARLINK-4685,1 53709U 22107K   23287.57374818 -.00002563  00000-0 -14298-3 0  9996,2 53709  53.2174 226.3404 0002237  85.0858 275.0389 15.08833876 62064,6917.899,95.438,541.312,538.217,0.0
53709.0,STARLINK-4685,PAYLOAD,2023-10-14 20:07:44,15.08824474,0.000112,53.2168,225.1522,102.5025,257.6092,-7.1633e-05,-1.427e-05,0.0,0 STARLINK-4685,1 53709U 22107K   23287.83871134 -.00001427  00000-0 -71633-4 0  9993,2 53709  53.2168 225.1522 0001120 102.5025 257.6092 15.08824474 61662,6917.928,95.439,540.568,539.018,0.0
53709.0,STARLINK-4685,PAYLOAD,2023-10-15 02:29:17,15.08831141,0.0001353,53.2162,223.9613,96.9093,263.2053,-0.00015968,-2.828e-05,0.0,0 STARLINK-4685,1 53709U 22107K   23288.10367062 -.00002828  00000-0 -15968-3 0  9998,2 53709  53.2162 223.9613 0001353  96.9093 263.2053 15.08831141 62145,6917.907,95.438,540.708,538.836,0.0
53709.0,STARLINK-4685,PAYLOAD,2023-10-15 19:58:31,15.0883975,0.0001257,53.2163,220.6904,102.2237,257.8896,0.00010216,1.338e-05,0.0,0 STARLINK-4685,1 53709U 22107K   23288.83230961  .00001338  00000-0  10216-3 0  9999,2 53709  53.2163 220.6904 0001257 102.2237 257.8896 15.08839750 61818,6917.881,95.438,540.616,538.877,0.0
53709.0,STARLINK-4685,PAYLOAD,2023-10-16 11:52:22,15.08852379,0.0001286,53.2165,217.7172,77.8145,282.2991,0.00028925,4.32e-05,0.0,0 STARLINK-4685,1 53709U 22107K   23289.49471017  .00004320  00000-0  28925-3 0  9991,2 53709  53.2165 217.7172 0001286  77.8145 282.2991 15.08852379 62351,6917.843,95.437,540.597,538.818,0.0
53709.0,STARLINK-4685,PAYLOAD,2023-10-16 19:49:18,15.08844711,0.0001382,53.2159,216.2312,81.2632,278.8517,0.00011653,1.567e-05,0.0,0 STARLINK-4685,1 53709U 22107K   23289.82591089  .00001567  00000-0  11653-3 0  9990,2 53709  53.2159 216.2312 0001382  81.2632 278.8517 15.08844711 62403,6917.866,95.437,540.687,538.775,0.0
53709.0,STARLINK-4685,PAYLOAD,2023-10-17 11:43:10,15.0883158,0.0001314,53.2167,213.2554,80.9723,279.1417,-6.0919e-05,-1.257e-05,0.0,0 STARLINK-4685,1 53709U 22107K   23290.48831648 -.00001257  00000-0 -60919-4 0  9990,2 53709  53.2167 213.2554 0001314  80.9723 279.1417 15.08831580 62064,6917.906,95.438,540.68,538.862,0.0
